{"type": "FeatureCollection", "features": [ {"type": "Feature", "properties": {"norad_id": 31327, "name": "FENGYUN 1C DEB", "group": "fengyun-1c-debris", "lat": -80.9837757143022, "lon": 63.91174234920803, "alt_km": 579.3305616467214, "timestamp": "2025-12-04T07:39:36.416710+00:00", "meta": {"OBJECT_NAME": "FENGYUN 1C DEB", "OBJECT_ID": "1999-025BQF", "EPOCH": "2025-12-02T05:09:54.181152", "MEAN_MOTION": 15.09995749, "ECCENTRICITY": 0.0089281, "INCLINATION": 98.9847, "RA_OF_ASC_NODE": 335.7853, "ARG_OF_PERICENTER": 44.0162, "MEAN_ANOMALY": 316.8127, "EPHEMERIS_TYPE": 0, "CLASSIFICATION_TYPE": "U", "NORAD_CAT_ID": 31327, "ELEMENT_SET_NO": 999, "REV_AT_EPOCH": 99941, "BSTAR": 0.0018104, "MEAN_MOTION_DOT": 0.00032362, "MEAN_MOTION_DDOT": 0}, "tle": {"line1": "1 31327U 99025BQF 25336.21521043  .00032362  00000+0  18104-2 0  9999", "line2": "2 31327  98.9847 335.7853 0089281  44.0162 316.8127 15.09995749999410"}}, "geometry": {"type": "Point", "coordinates": [63.91174234920803, -80.9837757143022]}}, {"type": "Feature", "properties": {"norad_id": 31328, "name": "FENGYUN 1C DEB", "group": "fengyun-1c-debris", "lat": 28.714986235031855, "lon": -52.37604749089014, "alt_km": 856.3139445032066, "timestamp": "2025-12-04T07:39:36.416719+00:00", "meta": {"OBJECT_NAME": "FENGYUN 1C DEB", "OBJECT_ID": "1999-025BQG", "EPOCH": "2025-12-03T09:40:32.280960", "MEAN_MOTION": 14.28937786, "ECCENTRICITY": 0.01032715, "INCLINATION": 98.4821, "RA_OF_ASC_NODE": 311.422, "ARG_OF_PERICENTER": 244.1675, "MEAN_ANOMALY": 114.8827, "EPHEMERIS_TYPE": 0, "CLASSIFICATION_TYPE": "U", "NORAD_CAT_ID": 31328, "ELEMENT_SET_NO": 999, "REV_AT_EPOCH": 97329, "BSTAR": 0.00012994805, "MEAN_MOTION_DOT": 3.04e-06, "MEAN_MOTION_DDOT": 0}, "tle": {"line1": "1 31328U 99025BQG 25337.40315140  .00000304  00000+0  12995-3 0  9995", "line2": "2 31328  98.4821 311.4220 0103271 244.1675 114.8827 14.28937786973293"}}, "geometry": {"type": "Point", "coordinates": [-52.37604749089014, 28.714986235031855]}}, {"type": "Feature", "properties": {"norad_id": 31330, "name": "FENGYUN 1C DEB", "group": "fengyun-1c-debris", "lat": -72.28313632518584, "lon": -67.87856291086527, "alt_km": 547.0218050108206, "timestamp": "2025-12-04T07:39:36.416728+00:00", "meta": {"OBJECT_NAME": "FENGYUN 1C DEB", "OBJECT_ID": "1999-025BQJ", "EPOCH": "2025-12-03T16:46:11.637120", "MEAN_MOTION": 15.06430456, "ECCENTRICITY": 0.00102553, "INCLINATION": 98.8853, "RA_OF_ASC_NODE": 140.7272, "ARG_OF_PERICENTER": 234.7843, "MEAN_ANOMALY": 256.8456, "EPHEMERIS_TYPE": 0, "CLASSIFICATION_TYPE": "U", "NORAD_CAT_ID": 31330, "ELEMENT_SET_NO": 999, "REV_AT_EPOCH": 96993, "BSTAR": 0.013855489, "MEAN_MOTION_DOT": 0.00210454, "MEAN_MOTION_DDOT": 0}, "tle": {"line1": "1 31330U 99025BQJ 25337.69874580  .00210454  00000+0  13855-1 0  9990", "line2": "2 31330  98.8853 140.7272 0010255 234.7843 256.8456 15.06430456969936"}}, "geometry": {"type": "Point", "coordinates": [-67.87856291086527, -72.28313632518584]}}, {"type": "Feature", "properties": {"norad_id": 31331, "name": "FENGYUN 1C DEB", "group": "fengyun-1c-debris", "lat": 34.5972409715032, "lon": -169.41749776811153, "alt_km": 870.5796624221493, "timestamp": "2025-12-04T07:39:36.416738+00:00", "meta": {"OBJECT_NAME": "FENGYUN 1C DEB", "OBJECT_ID": "1999-025BQK", "EPOCH": "2025-12-03T20:40:48.550656", "MEAN_MOTION": 14.00608302, "ECCENTRICITY": 0.00530006, "INCLINATION": 98.8719, "RA_OF_ASC_NODE": 3.9535, "ARG_OF_PERICENTER": 207.2235, "MEAN_ANOMALY": 152.615, "EPHEMERIS_TYPE": 0, "CLASSIFICATION_TYPE": "U", "NORAD_CAT_ID": 31331, "ELEMENT_SET_NO": 999, "REV_AT_EPOCH": 63732, "BSTAR": 0.00047073097, "MEAN_MOTION_DOT": 6.66e-06, "MEAN_MOTION_DDOT": 0}, "tle": {"line1": "1 31331U 99025BQK 25337.86167304  .00000666  00000+0  47073-3 0  9992", "line2": "2 31331  98.8719   3.9535 0053000 207.2235 152.6150 14.00608302637324"}}, "geometry": {"type": "Point", "coordinates": [-169.41749776811153, 34.5972409715032]}}, {"type": "Feature", "properties": {"norad_id": 31332, "name": "FENGYUN 1C DEB", "group": "fengyun-1c-debris", "lat": -16.089231974361002, "lon": -8.564394273441312, "alt_km": 842.5180510758428, "timestamp": "2025-12-04T07:39:36.416747+00:00", "meta": {"OBJECT_NAME": "FENGYUN 1C DEB", "OBJECT_ID": "1999-025BQL", "EPOCH": "2025-12-03T12:02:49.078752", "MEAN_MOTION": 14.11793945, "ECCENTRICITY": 0.00502824, "INCLINATION": 98.7068, "RA_OF_ASC_NODE": 348.1092, "ARG_OF_PERICENTER": 51.2719, "MEAN_ANOMALY": 101.942, "EPHEMERIS_TYPE": 0, "CLASSIFICATION_TYPE": "U", "NORAD_CAT_ID": 31332, "ELEMENT_SET_NO": 999, "REV_AT_EPOCH": 95841, "BSTAR": 0.001211905, "MEAN_MOTION_DOT": 2.194e-05, "MEAN_MOTION_DDOT": 0}, "tle": {"line1": "1 31332U 99025BQL 25337.50195693  .00002194  00000+0  12119-2 0  9996", "line2": "2 31332  98.7068 348.1092 0050282  51.2719 101.9420 14.11793945958419"}}, "geometry": {"type": "Point", "coordinates": [-8.564394273441312, -16.089231974361002]}}, {"type": "Feature", "properties": {"norad_id": 31333, "name": "FENGYUN 1C DEB", "group": "fengyun-1c-debris", "lat": 63.26558524049901, "lon": -169.67107990301756, "alt_km": 765.9244389620144, "timestamp": "2025-12-04T07:39:36.416756+00:00", "meta": {"OBJECT_NAME": "FENGYUN 1C DEB", "OBJECT_ID": "1999-025BQM", "EPOCH": "2025-11-27T18:34:18.195744", "MEAN_MOTION": 14.2646395, "ECCENTRICITY": 0.00993772, "INCLINATION": 98.4299, "RA_OF_ASC_NODE": 346.9035, "ARG_OF_PERICENTER": 70.1894, "MEAN_ANOMALY": 290.9968, "EPHEMERIS_TYPE": 0, "CLASSIFICATION_TYPE": "U", "NORAD_CAT_ID": 31333, "ELEMENT_SET_NO": 999, "REV_AT_EPOCH": 96378, "BSTAR": 0.00071340675, "MEAN_MOTION_DOT": 1.769e-05, "MEAN_MOTION_DDOT": 0}, "tle": {"line1": "1 31333U 99025BQM 25331.77382171  .00001769  00000+0  71341-3 0  9999", "line2": "2 31333  98.4299 346.9035 0099377  70.1894 290.9968 14.26463950963786"}}, "geometry": {"type": "Point", "coordinates": [-169.67107990301756, 63.26558524049901]}}, {"type": "Feature", "properties": {"norad_id": 31336, "name": "FENGYUN 1C DEB", "group": "fengyun-1c-debris", "lat": -33.085971941144365, "lon": -151.9075102163978, "alt_km": 745.4125773385167, "timestamp": "2025-12-04T07:39:36.416765+00:00", "meta": {"OBJECT_NAME": "FENGYUN 1C DEB", "OBJECT_ID": "1999-025BQQ", "EPOCH": "2025-12-03T02:26:40.162272", "MEAN_MOTION": 14.38666089, "ECCENTRICITY": 0.00937673, "INCLINATION": 98.4662, "RA_OF_ASC_NODE": 32.4606, "ARG_OF_PERICENTER": 147.1631, "MEAN_ANOMALY": 244.128, "EPHEMERIS_TYPE": 0, "CLASSIFICATION_TYPE": "U", "NORAD_CAT_ID": 31336, "ELEMENT_SET_NO": 999, "REV_AT_EPOCH": 97652, "BSTAR": 0.00045621257, "MEAN_MOTION_DOT": 1.427e-05, "MEAN_MOTION_DDOT": 0}, "tle": {"line1": "1 31336U 99025BQQ 25337.10185373  .00001427  00000+0  45621-3 0  9993", "line2": "2 31336  98.4662  32.4606 0093767 147.1631 244.1280 14.38666089976520"}}, "geometry": {"type": "Point", "coordinates": [-151.9075102163978, -33.085971941144365]}}, {"type": "Feature", "properties": {"norad_id": 31338, "name": "FENGYUN 1C DEB", "group": "fengyun-1c-debris", "lat": -26.694992335345553, "lon": -177.13325916674492, "alt_km": 877.7046110748042, "timestamp": "2025-12-04T07:39:36.416774+00:00", "meta": {"OBJECT_NAME": "FENGYUN 1C DEB", "OBJECT_ID": "1999-025BQS", "EPOCH": "2025-12-01T07:05:57.780096", "MEAN_MOTION": 14.20532057, "ECCENTRICITY": 0.00715092, "INCLINATION": 98.7164, "RA_OF_ASC_NODE": 175.4621, "ARG_OF_PERICENTER": 142.709, "MEAN_ANOMALY": 217.9082, "EPHEMERIS_TYPE": 0, "CLASSIFICATION_TYPE": "U", "NORAD_CAT_ID": 31338, "ELEMENT_SET_NO": 999, "REV_AT_EPOCH": 63495, "BSTAR": 0.0029930987, "MEAN_MOTION_DOT": 6.56e-05, "MEAN_MOTION_DDOT": 0}, "tle": {"line1": "1 31338U 99025BQS 25335.29580764  .00006560  00000+0  29931-2 0  9994", "line2": "2 31338  98.7164 175.4621 0071509 142.7090 217.9082 14.20532057634951"}}, "geometry": {"type": "Point", "coordinates": [-177.13325916674492, -26.694992335345553]}}, {"type": "Feature", "properties": {"norad_id": 31339, "name": "FENGYUN 1C DEB", "group": "fengyun-1c-debris", "lat": -70.36660835312463, "lon": 149.75339569340974, "alt_km": 865.662733580195, "timestamp": "2025-12-04T07:39:36.416783+00:00", "meta": {"OBJECT_NAME": "FENGYUN 1C DEB", "OBJECT_ID": "1999-025BQT", "EPOCH": "2025-12-03T18:33:38.101824", "MEAN_MOTION": 14.12120001, "ECCENTRICITY": 0.0074571, "INCLINATION": 98.7147, "RA_OF_ASC_NODE": 354.6873, "ARG_OF_PERICENTER": 350.9755, "MEAN_ANOMALY": 9.0072, "EPHEMERIS_TYPE": 0, "CLASSIFICATION_TYPE": "U", "NORAD_CAT_ID": 31339, "ELEMENT_SET_NO": 999, "REV_AT_EPOCH": 95551, "BSTAR": 0.0012987262, "MEAN_MOTION_DOT": 2.403e-05, "MEAN_MOTION_DDOT": 0}, "tle": {"line1": "1 31339U 99025BQT 25337.77335766  .00002403  00000+0  12987-2 0  9995", "line2": "2 31339  98.7147 354.6873 0074571 350.9755   9.0072 14.12120001955516"}}, "geometry": {"type": "Point", "coordinates": [149.75339569340974, -70.36660835312463]}}, {"type": "Feature", "properties": {"norad_id": 31341, "name": "FENGYUN 1C DEB", "group": "fengyun-1c-debris", "lat": 80.30170399787558, "lon": -81.28264247107535, "alt_km": 700.7771400905121, "timestamp": "2025-12-04T07:39:36.416792+00:00", "meta": {"OBJECT_NAME": "FENGYUN 1C DEB", "OBJECT_ID": "1999-025BQV", "EPOCH": "2025-12-03T01:38:08.568672", "MEAN_MOTION": 14.53153541, "ECCENTRICITY": 0.00534276, "INCLINATION": 99.5566, "RA_OF_ASC_NODE": 16.9736, "ARG_OF_PERICENTER": 15.7878, "MEAN_ANOMALY": 14.3859, "EPHEMERIS_TYPE": 0, "CLASSIFICATION_TYPE": "U", "NORAD_CAT_ID": 31341, "ELEMENT_SET_NO": 999, "REV_AT_EPOCH": 97478, "BSTAR": 0.0016407695, "MEAN_MOTION_DOT": 6.869e-05, "MEAN_MOTION_DDOT": 0}, "tle": {"line1": "1 31341U 99025BQV 25337.06815473  .00006869  00000+0  16408-2 0  9990", "line2": "2 31341  99.5566  16.9736 0053427  15.7878  14.3859 14.53153541974780"}}, "geometry": {"type": "Point", "coordinates": [-81.28264247107535, 80.30170399787558]}}]}